start=new Date('2022-09-27T00:00:00.000Z').valueOf();
sats=[{"ELEMENT_SET_NO":"999","ARG_OF_PERICENTER":"48.9579","OBJECT_ID":"2022-016AS","SITE":"AFETR","GP_ID":"213545611","OBJECT_NAME":"STARLINK-3457","RCS_SIZE":"LARGE","INCLINATION":"53.2186","REF_FRAME":"TEME","MEAN_ELEMENT_THEORY":"SGP4","EPHEMERIS_TYPE":"0","MEAN_MOTION":"15.08847628","MEAN_MOTION_DDOT":"0.0000000000000","FILE":"3584345","NORAD_CAT_ID":"51754","ECCENTRICITY":"0.00020290","BSTAR":"0.00000736650000","RA_OF_ASC_NODE":"206.1563","APOAPSIS":"541.126","COUNTRY_CODE":"US","CLASSIFICATION_TYPE":"U","PERIAPSIS":"538.318","TLE_LINE1":"1 51754U 22016AS  22269.53966401 -.00000171  00000-0  73665-5 0  9990","CENTER_NAME":"EARTH","OBJECT_TYPE":"PAYLOAD","MEAN_ANOMALY":"311.1588","LAUNCH_DATE":"2022-02-21","TIME_SYSTEM":"UTC","TLE_LINE2":"2 51754  53.2186 206.1563 0002029  48.9579 311.1588 15.08847628 33469","MEAN_MOTION_DOT":"-0.00000171","PERIOD":"95.437","SEMIMAJOR_AXIS":"6917.857","REV_AT_EPOCH":"3346","EPOCH":"2022-09-26T12:57:06.970464","DECAY_DATE":null},{"RA_OF_ASC_NODE":"204.6616","APOAPSIS":"541.290","CENTER_NAME":"EARTH","PERIAPSIS":"538.177","TLE_LINE1":"1 51755U 22016AT  22269.87360524  .00001734  00000-0  12699-3 0  9995","COUNTRY_CODE":"US","CLASSIFICATION_TYPE":"U","MEAN_ANOMALY":"315.7078","LAUNCH_DATE":"2022-02-21","OBJECT_TYPE":"PAYLOAD","REV_AT_EPOCH":"3351","EPOCH":"2022-09-26T20:57:59.492736","DECAY_DATE":null,"SEMIMAJOR_AXIS":"6917.868","MEAN_MOTION_DOT":"0.00001734","PERIOD":"95.437","TIME_SYSTEM":"UTC","TLE_LINE2":"2 51755  53.2164 204.6616 0002250  44.4094 315.7078 15.08844044 33516","SITE":"AFETR","GP_ID":"213601160","OBJECT_ID":"2022-016AT","ELEMENT_SET_NO":"999","ARG_OF_PERICENTER":"44.4094","MEAN_ELEMENT_THEORY":"SGP4","REF_FRAME":"TEME","INCLINATION":"53.2164","RCS_SIZE":"LARGE","OBJECT_NAME":"STARLINK-3460","FILE":"3584555","NORAD_CAT_ID":"51755","EPHEMERIS_TYPE":"0","MEAN_MOTION":"15.08844044","MEAN_MOTION_DDOT":"0.0000000000000","BSTAR":"0.00012699000000","ECCENTRICITY":"0.00022500"},{"TIME_SYSTEM":"UTC","TLE_LINE2":"2 51756  53.2194 204.7927 0001742  49.7325 310.3819 15.08830528 33512","MEAN_MOTION_DOT":"-0.00001030","PERIOD":"95.438","SEMIMAJOR_AXIS":"6917.909","EPOCH":"2022-09-26T20:15:35.400672","REV_AT_EPOCH":"3351","DECAY_DATE":null,"OBJECT_TYPE":"PAYLOAD","MEAN_ANOMALY":"310.3819","LAUNCH_DATE":"2022-02-21","COUNTRY_CODE":"US","CLASSIFICATION_TYPE":"U","PERIAPSIS":"538.569","TLE_LINE1":"1 51756U 22016AU  22269.84415973 -.00001030  00000-0 -46635-4 0  9991","CENTER_NAME":"EARTH","RA_OF_ASC_NODE":"204.7927","APOAPSIS":"540.979","ECCENTRICITY":"0.00017420","BSTAR":"-0.00004663500000","EPHEMERIS_TYPE":"0","MEAN_MOTION":"15.08830528","MEAN_MOTION_DDOT":"0.0000000000000","FILE":"3584555","NORAD_CAT_ID":"51756","OBJECT_NAME":"STARLINK-3513","RCS_SIZE":"LARGE","INCLINATION":"53.2194","REF_FRAME":"TEME","MEAN_ELEMENT_THEORY":"SGP4","ELEMENT_SET_NO":"999","ARG_OF_PERICENTER":"49.7325","OBJECT_ID":"2022-016AU","SITE":"AFETR","GP_ID":"213600907"},{"LAUNCH_DATE":"2022-02-21","MEAN_ANOMALY":"315.4768","OBJECT_TYPE":"PAYLOAD","DECAY_DATE":null,"EPOCH":"2022-09-26T20:10:16.422240","REV_AT_EPOCH":"3351","SEMIMAJOR_AXIS":"6917.899","PERIOD":"95.438","MEAN_MOTION_DOT":"-0.00000676","TLE_LINE2":"2 51757  53.2189 204.8055 0002071  44.6391 315.4768 15.08833759 33511","TIME_SYSTEM":"UTC","APOAPSIS":"541.197","RA_OF_ASC_NODE":"204.8055","CENTER_NAME":"EARTH","TLE_LINE1":"1 51757U 22016AV  22269.84046785 -.00000676  00000-0 -24399-4 0  9991","PERIAPSIS":"538.332","CLASSIFICATION_TYPE":"U","COUNTRY_CODE":"US","FILE":"3584555","NORAD_CAT_ID":"51757","MEAN_MOTION":"15.08833759","MEAN_MOTION_DDOT":"0.0000000000000","EPHEMERIS_TYPE":"0","BSTAR":"-0.00002439900000","ECCENTRICITY":"0.00020710","GP_ID":"213599658","SITE":"AFETR","OBJECT_ID":"2022-016AV","ARG_OF_PERICENTER":"44.6391","ELEMENT_SET_NO":"999","MEAN_ELEMENT_THEORY":"SGP4","REF_FRAME":"TEME","RCS_SIZE":"LARGE","INCLINATION":"53.2189","OBJECT_NAME":"STARLINK-3459"},{"CLASSIFICATION_TYPE":"U","COUNTRY_CODE":"US","TLE_LINE1":"1 51758U 22016AW  22269.24157394  .00002350  00000-0  16566-3 0  9990","PERIAPSIS":"537.881","CENTER_NAME":"EARTH","APOAPSIS":"541.533","RA_OF_ASC_NODE":"207.4861","TLE_LINE2":"2 51758  53.2190 207.4861 0002640  44.3082 315.8121 15.08852590 34561","TIME_SYSTEM":"UTC","PERIOD":"95.437","MEAN_MOTION_DOT":"0.00002350","SEMIMAJOR_AXIS":"6917.842","DECAY_DATE":null,"REV_AT_EPOCH":"3456","EPOCH":"2022-09-26T05:47:51.988416","OBJECT_TYPE":"PAYLOAD","LAUNCH_DATE":"2022-02-21","MEAN_ANOMALY":"315.8121","OBJECT_NAME":"STARLINK-3458","RCS_SIZE":"LARGE","INCLINATION":"53.2190","REF_FRAME":"TEME","MEAN_ELEMENT_THEORY":"SGP4","ARG_OF_PERICENTER":"44.3082","ELEMENT_SET_NO":"999","OBJECT_ID":"2022-016AW","GP_ID":"213545111","SITE":"AFETR","ECCENTRICITY":"0.00026400","BSTAR":"0.00016566000000","MEAN_MOTION_DDOT":"0.0000000000000","MEAN_MOTION":"15.08852590","EPHEMERIS_TYPE":"0","FILE":"3584345","NORAD_CAT_ID":"51758"},{"OBJECT_NAME":"STARLINK-3456","RCS_SIZE":"LARGE","INCLINATION":"53.2198","REF_FRAME":"TEME","MEAN_ELEMENT_THEORY":"SGP4","ELEMENT_SET_NO":"999","ARG_OF_PERICENTER":"61.0481","OBJECT_ID":"2022-016AX","SITE":"AFETR","GP_ID":"213543879","ECCENTRICITY":"0.00015090","BSTAR":"-0.00001550400000","EPHEMERIS_TYPE":"0","MEAN_MOTION_DDOT":"0.0000000000000","MEAN_MOTION":"15.08841891","FILE":"3584345","NORAD_CAT_ID":"51759","COUNTRY_CODE":"US","CLASSIFICATION_TYPE":"U","PERIAPSIS":"538.696","TLE_LINE1":"1 51759U 22016AX  22269.10814735 -.00000535  00000-0 -15504-4 0  9992","CENTER_NAME":"EARTH","RA_OF_ASC_NODE":"208.0927","APOAPSIS":"540.784","TIME_SYSTEM":"UTC","TLE_LINE2":"2 51759  53.2198 208.0927 0001509  61.0481 299.0663 15.08841891 33400","MEAN_MOTION_DOT":"-0.00000535","PERIOD":"95.437","SEMIMAJOR_AXIS":"6917.875","EPOCH":"2022-09-26T02:35:43.931040","REV_AT_EPOCH":"3340","DECAY_DATE":null,"OBJECT_TYPE":"PAYLOAD","MEAN_ANOMALY":"299.0663","LAUNCH_DATE":"2022-02-21"},{"OBJECT_TYPE":"PAYLOAD","MEAN_ANOMALY":"311.2545","LAUNCH_DATE":"2022-02-25","TIME_SYSTEM":"UTC","TLE_LINE2":"2 51768  53.2169 235.8675 0001789  48.8601 311.2545 15.08823775 33815","MEAN_MOTION_DOT":"-0.00000774","PERIOD":"95.439","SEMIMAJOR_AXIS":"6917.930","EPOCH":"2022-09-26T14:27:09.986688","REV_AT_EPOCH":"3381","DECAY_DATE":null,"RA_OF_ASC_NODE":"235.8675","APOAPSIS":"541.033","COUNTRY_CODE":"US","CLASSIFICATION_TYPE":"U","PERIAPSIS":"538.557","TLE_LINE1":"1 51768U 22017A   22269.60219892 -.00000774  00000-0 -30569-4 0  9994","CENTER_NAME":"EARTH","EPHEMERIS_TYPE":"0","MEAN_MOTION":"15.08823775","MEAN_MOTION_DDOT":"0.0000000000000","FILE":"3584555","NORAD_CAT_ID":"51768","ECCENTRICITY":"0.00017890","BSTAR":"-0.00003056900000","ELEMENT_SET_NO":"999","ARG_OF_PERICENTER":"48.8601","OBJECT_ID":"2022-017A","SITE":"AFWTR","GP_ID":"213601408","OBJECT_NAME":"STARLINK-3622","RCS_SIZE":"LARGE","INCLINATION":"53.2169","REF_FRAME":"TEME","MEAN_ELEMENT_THEORY":"SGP4"},{"APOAPSIS":"540.922","RA_OF_ASC_NODE":"237.6890","TLE_LINE1":"1 51769U 22017B   22269.19738997 -.00001277  00000-0 -62159-4 0  9990","PERIAPSIS":"538.585","CENTER_NAME":"EARTH","CLASSIFICATION_TYPE":"U","COUNTRY_CODE":"US","LAUNCH_DATE":"2022-02-25","MEAN_ANOMALY":"306.2965","OBJECT_TYPE":"PAYLOAD","SEMIMAJOR_AXIS":"6917.889","DECAY_DATE":null,"REV_AT_EPOCH":"3231","EPOCH":"2022-09-26T04:44:14.493408","TLE_LINE2":"2 51769  53.2183 237.6890 0001689  53.8183 306.2965 15.08837276 32316","TIME_SYSTEM":"UTC","PERIOD":"95.438","MEAN_MOTION_DOT":"-0.00001277","GP_ID":"213544869","SITE":"AFWTR","ARG_OF_PERICENTER":"53.8183","ELEMENT_SET_NO":"999","OBJECT_ID":"2022-017B","REF_FRAME":"TEME","MEAN_ELEMENT_THEORY":"SGP4","OBJECT_NAME":"STARLINK-3621","INCLINATION":"53.2183","RCS_SIZE":"LARGE","NORAD_CAT_ID":"51769","FILE":"3584345","MEAN_MOTION":"15.08837276","MEAN_MOTION_DDOT":"0.0000000000000","EPHEMERIS_TYPE":"0","ECCENTRICITY":"0.00016890","BSTAR":"-0.00006215900000"},{"ECCENTRICITY":"0.00018540","BSTAR":"-0.00009010300000","EPHEMERIS_TYPE":"0","MEAN_MOTION":"15.08831775","MEAN_MOTION_DDOT":"0.0000000000000","NORAD_CAT_ID":"51770","FILE":"3584345","OBJECT_NAME":"STARLINK-3612","RCS_SIZE":"LARGE","INCLINATION":"53.2170","REF_FRAME":"TEME","MEAN_ELEMENT_THEORY":"SGP4","ELEMENT_SET_NO":"999","ARG_OF_PERICENTER":"48.7617","OBJECT_ID":"2022-017C","SITE":"AFWTR","GP_ID":"213545612","TIME_SYSTEM":"UTC","TLE_LINE2":"2 51770  53.2170 237.0716 0001854  48.7617 311.3534 15.08831775 32344","MEAN_MOTION_DOT":"-0.00001722","PERIOD":"95.438","SEMIMAJOR_AXIS":"6917.906","REV_AT_EPOCH":"3234","EPOCH":"2022-09-26T08:00:19.045728","DECAY_DATE":null,"OBJECT_TYPE":"PAYLOAD","MEAN_ANOMALY":"311.3534","LAUNCH_DATE":"2022-02-25","COUNTRY_CODE":"US","CLASSIFICATION_TYPE":"U","PERIAPSIS":"538.488","TLE_LINE1":"1 51770U 22017C   22269.33355377 -.00001722  00000-0 -90103-4 0  9990","CENTER_NAME":"EARTH","RA_OF_ASC_NODE":"237.0716","APOAPSIS":"541.053"},{"BSTAR":"0.00002211600000","ECCENTRICITY":"0.00018510","EPHEMERIS_TYPE":"0","MEAN_MOTION_DDOT":"0.0000000000000","MEAN_MOTION":"15.08839877","FILE":"3584555","NORAD_CAT_ID":"51771","INCLINATION":"53.2176","RCS_SIZE":"LARGE","OBJECT_NAME":"STARLINK-3614","MEAN_ELEMENT_THEORY":"SGP4","REF_FRAME":"TEME","OBJECT_ID":"2022-017D","ELEMENT_SET_NO":"999","ARG_OF_PERICENTER":"51.1181","SITE":"AFWTR","GP_ID":"213601161","MEAN_MOTION_DOT":"0.00000064","PERIOD":"95.438","TIME_SYSTEM":"UTC","TLE_LINE2":"2 51771  53.2176 234.7259 0001851  51.1181 308.9976 15.08839877 32419","EPOCH":"2022-09-26T20:34:10.352928","REV_AT_EPOCH":"3241","DECAY_DATE":null,"SEMIMAJOR_AXIS":"6917.881","OBJECT_TYPE":"PAYLOAD","MEAN_ANOMALY":"308.9976","LAUNCH_DATE":"2022-02-25","COUNTRY_CODE":"US","CLASSIFICATION_TYPE":"U","CENTER_NAME":"EARTH","PERIAPSIS":"538.465","TLE_LINE1":"1 51771U 22017D   22269.85706427  .00000064  00000-0  22116-4 0  9999","RA_OF_ASC_NODE":"234.7259","APOAPSIS":"541.026"}];
